IRIDIUM 144             
1 43249U 18030A   25034.31592073  .00000795  00000+0  27662-3 0  9994
2 43249  86.4011 138.9767 0002234  97.0646 263.0804 14.34217978358632
IRIDIUM 149             
1 43250U 18030B   25034.32224850  .00000707  00000+0  24531-3 0  9997
2 43250  86.3991 138.9452 0002833 100.9687 259.1827 14.34220552358650
IRIDIUM 157             
1 43251U 18030C   25034.34129397  .00000725  00000+0  25179-3 0  9999
2 43251  86.4010 138.9809 0001819  93.7961 266.3443 14.34216216358631
IRIDIUM 140             
1 43252U 18030D   25034.77892849  .00000676  00000+0  23430-3 0  9999
2 43252  86.4013 138.8126 0002195  97.4696 262.6750 14.34218434358757
IRIDIUM 145             
1 43253U 18030E   25034.34763324  .00000785  00000+0  27306-3 0  9995
2 43253  86.4009 138.9649 0002520  91.6547 268.4937 14.34218760358626
IRIDIUM 146             
1 43254U 18030F   25034.32860599  .00000771  00000+0  26825-3 0  9996
2 43254  86.4011 138.9873 0002538  95.0505 265.0980 14.34218649358638
IRIDIUM 148             
1 43255U 18030G   25034.36666086  .00000768  00000+0  26723-3 0  9999
2 43255  86.4013 139.0068 0002203  91.3096 268.8352 14.34217983358670
IRIDIUM 142             
1 43256U 18030H   25034.33494704  .00000242  00000+0  79361-4 0  9997
2 43256  86.4007 138.9271 0002427  88.8629 271.2845 14.34214229358630
